STARLINK-36241          
1 68154U 26049N   26190.00156175  .00015487  00000+0  48067-3 0  9990
2 68154  97.2865 210.9483 0000931 124.8798 235.2532 15.33471509 18236
STARLINK-37048          
1 68155U 26049P   26190.00427589  .00014307  00000+0  44427-3 0  9997
2 68155  97.2851 210.9470 0001192 120.7354 239.4006 15.33472171 18239
STARLINK-36313          
1 68156U 26049Q   26190.32511479  .00014232  00000+0  44222-3 0  9995
2 68156  97.2872 211.2735 0000658 137.5406 222.5887 15.33454186 18282
STARLINK-37064          
1 68157U 26049R   26190.02056899  .00001241  00000+0  40743-4 0  9994
2 68157  97.2864 211.0773 0000457  57.0479 303.0808 15.33457797 18242
STARLINK-37069          
1 68158U 26049S   26189.99612282  .00013804  00000+0  42876-3 0  9999
2 68158  97.2845 210.9552 0001083  85.7586 274.3780 15.33471424 18239
STARLINK-37053          
1 68159U 26049T   26190.03962027  .00013055  00000+0  40566-3 0  9994
2 68159  97.2842 211.0498 0000984 100.0198 260.1156 15.33471652 18241
STARLINK-36306          
1 68160U 26049U   26190.05048166  .00018288  00000+0  56671-3 0  9994
2 68160  97.2839 211.0331 0003273 117.9174 242.2400 15.33481942 18246
STARLINK-37057          
1 68161U 26049V   26189.99067854  .00015157  00000+0  47082-3 0  9999
2 68161  97.2854 210.9649 0001323 105.4217 254.7172 15.33448964 18238
STARLINK-37013          
1 68162U 26049W   26189.58827867  .00012921  00000+0  40158-3 0  9996
2 68162  97.2865 210.5906 0000280  31.4007 328.7252 15.33467854 18172
STARLINK-36958          
1 68163U 26049X   26189.94174457  .00019095  00000+0  59173-3 0  9993
2 68163  97.2846 210.8780 0001750  95.3478 264.7964 15.33475094 18229
STARLINK-37002          
1 68164U 26049Y   26190.05321684  .00012389  00000+0  38511-3 0  9996
2 68164  97.2853 211.0311 0001198  96.1738 263.9641 15.33473511 18242
STARLINK-36971          
1 68165U 26049Z   26190.01786880  .00010765  00000+0  33514-3 0  9990
2 68165  97.2846 211.0782 0001703  97.5183 262.6253 15.33459940 18243
STARLINK-36273          
1 68166U 26049AA  26190.00575555  .00013561  00000+0  42127-3 0  9992
2 68166  97.2849 211.8574 0001627 123.6827 236.4571 15.33471864 18291
STARLINK-36969          
1 68167U 26050A   26189.92454997  .00010791  00000+0  32999-3 0  9998
2 68167  53.1584  61.5876 0001348  53.3954 306.7173 15.34406508 19276
STARLINK-36984          
1 68168U 26050B   26189.91824053  .00010594  00000+0  32415-3 0  9996
2 68168  53.1584  61.5593 0001370  55.3499 304.7633 15.34406712 19270
STARLINK-37077          
1 68169U 26050C   26190.02124612  .00017833  00000+0  53735-3 0  9996
2 68169  53.1599  61.4770 0001436  61.6868 298.4280 15.34419661 19281
STARLINK-37003          
1 68170U 26050D   26190.03798682  .00016168  00000+0  48834-3 0  9997
2 68170  53.1598  60.8685 0001349  73.6834 286.4317 15.34417026 19291
STARLINK-37034          
1 68171U 26050E   26189.93717966  .00029679  00000+0  88489-3 0  9992
2 68171  53.1582  61.6620 0001170 114.8113 245.3011 15.34441447 19270
STARLINK-37031          
1 68172U 26050F   26190.01912892  .00022055  00000+0  66110-3 0  9997
2 68172  53.1581  61.4613 0001192  70.5251 289.5880 15.34441055 19285
STARLINK-37076          
1 68173U 26050G   26189.96031725  .00015919  00000+0  48103-3 0  9990
2 68173  53.1584  61.7963 0001417  74.1245 285.9914 15.34415475 19277
STARLINK-37078          
1 68174U 26050H   26190.01703407  .00024078  00000+0  72103-3 0  9995
2 68174  53.1576  61.4384 0001096  85.8732 274.2396 15.34418848 19289
STARLINK-36886          
1 68175U 26050J   26190.04640250  .00015119  00000+0  45749-3 0  9997
2 68175  53.1591  60.9083 0001515  99.2596 260.8578 15.34414620 19298
STARLINK-36905          
1 68176U 26050K   26189.94979670  .00022059  00000+0  66184-3 0  9993
2 68176  53.1584  61.7269 0001250  98.0016 262.1128 15.34410814 19271
STARLINK-36668          
1 68177U 26050L   26190.05271600  .00015531  00000+0  46958-3 0  9990
2 68177  53.1596  60.9701 0001383  76.0168 284.0988 15.34417615 19293
STARLINK-36677          
1 68178U 26050M   26190.06323052  .00040479  00000+0  12021-2 0  9993
2 68178  53.1569  61.0063 0001214 104.3768 255.7370 15.34415663 19292
STARLINK-37052          
1 68179U 26050N   26190.18088104  .00027932  00000+0  83486-3 0  9996
2 68179  53.1591  60.3394 0001234  81.3326 278.7817 15.34395288 19317
STARLINK-37035          
1 68180U 26050P   26189.92875142  .00044305  00000+0  13127-2 0  9991
2 68180  53.1590  61.6088 0001422  28.0323 332.0756 15.34448836 19275
STARLINK-37032          
1 68181U 26050Q   26189.94558548  .00014678  00000+0  44462-3 0  9999
2 68181  53.1582  61.7184 0001153  94.1127 266.0007 15.34405707 19277
STARLINK-37082          
1 68182U 26050R   26190.07796172  .00018853  00000+0  56725-3 0  9997
2 68182  53.1586  61.1173 0001232  74.3503 285.7635 15.34425229 19298
STARLINK-37102          
1 68183U 26050S   26189.92665142  .00011850  00000+0  36117-3 0  9995
2 68183  53.1583  61.5931 0000987  99.9080 260.2034 15.34410118 19271
