OBJECT_NAME,OBJECT_ID,EPOCH,MEAN_MOTION,ECCENTRICITY,INCLINATION,RA_OF_ASC_NODE,ARG_OF_PERICENTER,MEAN_ANOMALY,EPHEMERIS_TYPE,CLASSIFICATION_TYPE,NORAD_CAT_ID,ELEMENT_SET_NO,REV_AT_EPOCH,BSTAR,MEAN_MOTION_DOT,MEAN_MOTION_DDOT
STARLINK-36241,2026-049N,2026-07-09T00:02:14.935200,15.33471509,.00009319,97.2865,210.9483,124.8798,235.2532,0,U,68154,999,1823,.4806677E-3,.15487E-3,0
STARLINK-37048,2026-049P,2026-07-09T00:06:09.436896,15.33472171,.00011923,97.2851,210.9470,120.7354,239.4006,0,U,68155,999,1823,.44426913E-3,.14307E-3,0
STARLINK-36313,2026-049Q,2026-07-09T07:48:09.917856,15.33454186,.00006583,97.2872,211.2735,137.5406,222.5887,0,U,68156,999,1828,.44222483E-3,.14232E-3,0
STARLINK-37064,2026-049R,2026-07-09T00:29:37.160736,15.33457797,.00004579,97.2864,211.0773,57.0479,303.0808,0,U,68157,999,1824,.40742851E-4,.1241E-4,0
STARLINK-37069,2026-049S,2026-07-08T23:54:25.011648,15.33471424,.00010836,97.2845,210.9552,85.7586,274.3780,0,U,68158,999,1823,.42876333E-3,.13804E-3,0
STARLINK-37053,2026-049T,2026-07-09T00:57:03.191328,15.33471652,.00009849,97.2842,211.0498,100.0198,260.1156,0,U,68159,999,1824,.40566404E-3,.13055E-3,0
STARLINK-36306,2026-049U,2026-07-09T01:12:41.615424,15.33481942,.00032735,97.2839,211.0331,117.9174,242.2400,0,U,68160,999,1824,.56670622E-3,.18288E-3,0
STARLINK-37057,2026-049V,2026-07-08T23:46:34.625856,15.33448964,.0001323,97.2854,210.9649,105.4217,254.7172,0,U,68161,999,1823,.47082374E-3,.15157E-3,0
STARLINK-37013,2026-049W,2026-07-08T14:07:07.277088,15.33467854,.00002802,97.2865,210.5906,31.4007,328.7252,0,U,68162,999,1817,.40157703E-3,.12921E-3,0
STARLINK-36958,2026-049X,2026-07-08T22:36:06.730848,15.33475094,.00017504,97.2846,210.8780,95.3478,264.7964,0,U,68163,999,1822,.59173051E-3,.19095E-3,0
STARLINK-37002,2026-049Y,2026-07-09T01:16:37.934976,15.33473511,.00011988,97.2853,211.0311,96.1738,263.9641,0,U,68164,999,1824,.38511206E-3,.12389E-3,0
STARLINK-36971,2026-049Z,2026-07-09T00:25:43.864320,15.33459940,.00017032,97.2846,211.0782,97.5183,262.6253,0,U,68165,999,1824,.33514118E-3,.10765E-3,0
STARLINK-36273,2026-049AA,2026-07-09T00:08:17.279520,15.33471864,.0001627,97.2849,211.8574,123.6827,236.4571,0,U,68166,999,1829,.42126813E-3,.13561E-3,0
STARLINK-36969,2026-050A,2026-07-08T22:11:21.117408,15.34406508,.00013489,53.1584,61.5876,53.3954,306.7173,0,U,68167,999,1927,.32999139E-3,.10791E-3,0
STARLINK-36984,2026-050B,2026-07-08T22:02:15.981792,15.34406712,.00013706,53.1584,61.5593,55.3499,304.7633,0,U,68168,999,1927,.3241519E-3,.10594E-3,0
STARLINK-37077,2026-050C,2026-07-09T00:30:35.664768,15.34419661,.00014366,53.1599,61.4770,61.6868,298.4280,0,U,68169,999,1928,.53734984E-3,.17833E-3,0
STARLINK-37003,2026-050D,2026-07-09T00:54:42.061248,15.34417026,.00013494,53.1598,60.8685,73.6834,286.4317,0,U,68170,999,1929,.48834465E-3,.16168E-3,0
STARLINK-37034,2026-050E,2026-07-08T22:29:32.322624,15.34441447,.00011708,53.1582,61.6620,114.8113,245.3011,0,U,68171,999,1927,.88488758E-3,.29679E-3,0
STARLINK-37031,2026-050F,2026-07-09T00:27:32.738688,15.34441055,.00011922,53.1581,61.4613,70.5251,289.5880,0,U,68172,999,1928,.66110064E-3,.22055E-3,0
STARLINK-37076,2026-050G,2026-07-08T23:02:51.410400,15.34415475,.00014177,53.1584,61.7963,74.1245,285.9914,0,U,68173,999,1927,.48102817E-3,.15919E-3,0
STARLINK-37078,2026-050H,2026-07-09T00:24:31.743648,15.34418848,.00010964,53.1576,61.4384,85.8732,274.2396,0,U,68174,999,1928,.72103001E-3,.24078E-3,0
STARLINK-36886,2026-050J,2026-07-09T01:06:49.176000,15.34414620,.00015157,53.1591,60.9083,99.2596,260.8578,0,U,68175,999,1929,.45748577E-3,.15119E-3,0
STARLINK-36905,2026-050K,2026-07-08T22:47:42.434880,15.34410814,.00012507,53.1584,61.7269,98.0016,262.1128,0,U,68176,999,1927,.66184237E-3,.22059E-3,0
STARLINK-36668,2026-050L,2026-07-09T01:15:54.662400,15.34417615,.00013835,53.1596,60.9701,76.0168,284.0988,0,U,68177,999,1929,.46957664E-3,.15531E-3,0
STARLINK-36677,2026-050M,2026-07-09T01:31:03.116928,15.34415663,.00012147,53.1569,61.0063,104.3768,255.7370,0,U,68178,999,1929,.1202133E-2,.40479E-3,0
STARLINK-37052,2026-050N,2026-07-09T04:20:28.121856,15.34395288,.00012349,53.1591,60.3394,81.3326,278.7817,0,U,68179,999,1931,.83486089E-3,.27932E-3,0
STARLINK-37035,2026-050P,2026-07-08T22:17:24.122688,15.34448836,.00014225,53.1590,61.6088,28.0323,332.0756,0,U,68180,999,1927,.13126545E-2,.44305E-3,0
STARLINK-37032,2026-050Q,2026-07-08T22:41:38.585472,15.34405707,.00011537,53.1582,61.7184,94.1127,266.0007,0,U,68181,999,1927,.44461569E-3,.14678E-3,0
STARLINK-37082,2026-050R,2026-07-09T01:52:15.892608,15.34425229,.00012323,53.1586,61.1173,74.3503,285.7635,0,U,68182,999,1929,.56724603E-3,.18853E-3,0
STARLINK-37102,2026-050S,2026-07-08T22:14:22.682688,15.34410118,.00009875,53.1583,61.5931,99.9080,260.2034,0,U,68183,999,1927,.36116555E-3,.1185E-3,0
